{"type": "FeatureCollection", "features": [ {"type": "Feature", "properties": {"norad_id": 66506, "name": "STARLINK-34765", "group": "last-30-days", "lat": -7.442145965505001, "lon": -61.79790007258022, "alt_km": 414.06009128772075, "timestamp": "2025-12-15T07:02:36.372533+00:00", "meta": {"OBJECT_NAME": "STARLINK-34765", "OBJECT_ID": "2025-263X", "EPOCH": "2025-12-13T09:24:02.209536", "MEAN_MOTION": 15.50662448, "ECCENTRICITY": 0.00019802, "INCLINATION": 43.0016, "RA_OF_ASC_NODE": 121.276, "ARG_OF_PERICENTER": 266.2517, "MEAN_ANOMALY": 93.8117, "EPHEMERIS_TYPE": 0, "CLASSIFICATION_TYPE": "U", "NORAD_CAT_ID": 66506, "ELEMENT_SET_NO": 999, "REV_AT_EPOCH": 566, "BSTAR": 0.0020838032, "MEAN_MOTION_DOT": 0.00124234, "MEAN_MOTION_DDOT": 0}, "tle": {"line1": "1 66506U 25263X   25347.39169224  .00124234  00000+0  20838-2 0  9996", "line2": "2 66506  43.0016 121.2760 0001980 266.2517  93.8117 15.50662448  5662"}}, "geometry": {"type": "Point", "coordinates": [-61.79790007258022, -7.442145965505001]}}, {"type": "Feature", "properties": {"norad_id": 66507, "name": "STARLINK-34767", "group": "last-30-days", "lat": 41.58082627873426, "lon": -177.3786794925155, "alt_km": 438.20782864522425, "timestamp": "2025-12-15T07:02:36.372543+00:00", "meta": {"OBJECT_NAME": "STARLINK-34767", "OBJECT_ID": "2025-263Y", "EPOCH": "2025-12-14T20:00:06.000192", "MEAN_MOTION": 15.40654131, "ECCENTRICITY": 0.00015613, "INCLINATION": 43.0001, "RA_OF_ASC_NODE": 113.0742, "ARG_OF_PERICENTER": 288.3869, "MEAN_ANOMALY": 113.5716, "EPHEMERIS_TYPE": 0, "CLASSIFICATION_TYPE": "U", "NORAD_CAT_ID": 66507, "ELEMENT_SET_NO": 999, "REV_AT_EPOCH": 597, "BSTAR": 0.0020624324, "MEAN_MOTION_DOT": 0.00086702, "MEAN_MOTION_DDOT": 0}, "tle": {"line1": "1 66507U 25263Y   25348.83340278  .00086702  00000+0  20624-2 0  9997", "line2": "2 66507  43.0001 113.0742 0001561 288.3869 113.5716 15.40654131  5974"}}, "geometry": {"type": "Point", "coordinates": [-177.3786794925155, 41.58082627873426]}}, {"type": "Feature", "properties": {"norad_id": 66508, "name": "STARLINK-35608", "group": "last-30-days", "lat": 33.18940956022256, "lon": -114.28202633955212, "alt_km": 439.55686967894235, "timestamp": "2025-12-15T07:02:36.372554+00:00", "meta": {"OBJECT_NAME": "STARLINK-35608", "OBJECT_ID": "2025-263Z", "EPOCH": "2025-12-14T20:00:06.000192", "MEAN_MOTION": 15.40651256, "ECCENTRICITY": 0.00015344, "INCLINATION": 43.0002, "RA_OF_ASC_NODE": 112.9533, "ARG_OF_PERICENTER": 272.8257, "MEAN_ANOMALY": 178.8951, "EPHEMERIS_TYPE": 0, "CLASSIFICATION_TYPE": "U", "NORAD_CAT_ID": 66508, "ELEMENT_SET_NO": 999, "REV_AT_EPOCH": 597, "BSTAR": 0.0021049319, "MEAN_MOTION_DOT": 0.00088507, "MEAN_MOTION_DDOT": 0}, "tle": {"line1": "1 66508U 25263Z   25348.83340278  .00088507  00000+0  21049-2 0  9995", "line2": "2 66508  43.0002 112.9533 0001534 272.8257 178.8951 15.40651256  5971"}}, "geometry": {"type": "Point", "coordinates": [-114.28202633955212, 33.18940956022256]}}, {"type": "Feature", "properties": {"norad_id": 66509, "name": "STARLINK-35598", "group": "last-30-days", "lat": -16.519586126180815, "lon": -51.33202638987485, "alt_km": 415.4107910502098, "timestamp": "2025-12-15T07:02:36.372564+00:00", "meta": {"OBJECT_NAME": "STARLINK-35598", "OBJECT_ID": "2025-263AA", "EPOCH": "2025-12-14T08:31:08.436000", "MEAN_MOTION": 15.50307356, "ECCENTRICITY": 0.00024598, "INCLINATION": 42.9963, "RA_OF_ASC_NODE": 115.5964, "ARG_OF_PERICENTER": 212.5604, "MEAN_ANOMALY": 147.5105, "EPHEMERIS_TYPE": 0, "CLASSIFICATION_TYPE": "U", "NORAD_CAT_ID": 66509, "ELEMENT_SET_NO": 999, "REV_AT_EPOCH": 581, "BSTAR": 0.0014213788, "MEAN_MOTION_DOT": 0.0008313, "MEAN_MOTION_DDOT": 0}, "tle": {"line1": "1 66509U 25263AA  25348.35495875  .00083130  00000+0  14214-2 0  9990", "line2": "2 66509  42.9963 115.5964 0002459 212.5604 147.5105 15.50307356  5814"}}, "geometry": {"type": "Point", "coordinates": [-51.33202638987485, -16.519586126180815]}}, {"type": "Feature", "properties": {"norad_id": 66510, "name": "STARLINK-35600", "group": "last-30-days", "lat": -12.866110743857286, "lon": -55.68913650991017, "alt_km": 416.26596457703727, "timestamp": "2025-12-15T07:02:36.372577+00:00", "meta": {"OBJECT_NAME": "STARLINK-35600", "OBJECT_ID": "2025-263AB", "EPOCH": "2025-12-14T17:49:03.451584", "MEAN_MOTION": 15.50286834, "ECCENTRICITY": 0.00044017, "INCLINATION": 42.9969, "RA_OF_ASC_NODE": 113.343, "ARG_OF_PERICENTER": 251.3288, "MEAN_ANOMALY": 108.7095, "EPHEMERIS_TYPE": 0, "CLASSIFICATION_TYPE": "U", "NORAD_CAT_ID": 66510, "ELEMENT_SET_NO": 999, "REV_AT_EPOCH": 587, "BSTAR": -0.0042621256, "MEAN_MOTION_DOT": -0.00240481, "MEAN_MOTION_DDOT": 0}, "tle": {"line1": "1 66510U 25263AB  25348.74240106 -.00240481  00000+0 -42621-2 0  9999", "line2": "2 66510  42.9969 113.3430 0004401 251.3288 108.7095 15.50286834  5874"}}, "geometry": {"type": "Point", "coordinates": [-55.68913650991017, -12.866110743857286]}}, {"type": "Feature", "properties": {"norad_id": 66511, "name": "STARLINK-35444", "group": "last-30-days", "lat": -16.53709712807461, "lon": -51.31282157273753, "alt_km": 416.08390867215803, "timestamp": "2025-12-15T07:02:36.372587+00:00", "meta": {"OBJECT_NAME": "STARLINK-35444", "OBJECT_ID": "2025-263AC", "EPOCH": "2025-12-13T18:36:38.488608", "MEAN_MOTION": 15.50553327, "ECCENTRICITY": 9.555e-05, "INCLINATION": 42.9995, "RA_OF_ASC_NODE": 118.9895, "ARG_OF_PERICENTER": 296.0653, "MEAN_ANOMALY": 64.0108, "EPHEMERIS_TYPE": 0, "CLASSIFICATION_TYPE": "U", "NORAD_CAT_ID": 66511, "ELEMENT_SET_NO": 999, "REV_AT_EPOCH": 572, "BSTAR": 0.0015108389, "MEAN_MOTION_DOT": 0.00089226, "MEAN_MOTION_DDOT": 0}, "tle": {"line1": "1 66511U 25263AC  25347.77544547  .00089226  00000+0  15108-2 0  9994", "line2": "2 66511  42.9995 118.9895 0000955 296.0653  64.0108 15.50553327  5729"}}, "geometry": {"type": "Point", "coordinates": [-51.31282157273753, -16.53709712807461]}}, {"type": "Feature", "properties": {"norad_id": 66512, "name": "STARLINK-35366", "group": "last-30-days", "lat": -18.68003405956421, "lon": -48.62726326257827, "alt_km": 416.3709704716857, "timestamp": "2025-12-15T07:02:36.372597+00:00", "meta": {"OBJECT_NAME": "STARLINK-35366", "OBJECT_ID": "2025-263AD", "EPOCH": "2025-12-14T19:19:46.386336", "MEAN_MOTION": 15.50614445, "ECCENTRICITY": 0.00014563, "INCLINATION": 42.9994, "RA_OF_ASC_NODE": 112.9547, "ARG_OF_PERICENTER": 284.5931, "MEAN_ANOMALY": 75.4767, "EPHEMERIS_TYPE": 0, "CLASSIFICATION_TYPE": "U", "NORAD_CAT_ID": 66512, "ELEMENT_SET_NO": 999, "REV_AT_EPOCH": 588, "BSTAR": 0.0013136957, "MEAN_MOTION_DOT": 0.00077592, "MEAN_MOTION_DDOT": 0}, "tle": {"line1": "1 66512U 25263AD  25348.80539799  .00077592  00000+0  13137-2 0  9996", "line2": "2 66512  42.9994 112.9547 0001456 284.5931  75.4767 15.50614445  5888"}}, "geometry": {"type": "Point", "coordinates": [-48.62726326257827, -18.68003405956421]}}, {"type": "Feature", "properties": {"norad_id": 66513, "name": "STARLINK-35692", "group": "last-30-days", "lat": -13.137660446464102, "lon": -55.374550591854025, "alt_km": 424.9193999967865, "timestamp": "2025-12-15T07:02:36.372608+00:00", "meta": {"OBJECT_NAME": "STARLINK-35692", "OBJECT_ID": "2025-263AE", "EPOCH": "2025-12-14T17:48:37.490976", "MEAN_MOTION": 15.49888651, "ECCENTRICITY": 0.0006975, "INCLINATION": 42.9999, "RA_OF_ASC_NODE": 113.3407, "ARG_OF_PERICENTER": 346.0385, "MEAN_ANOMALY": 14.0281, "EPHEMERIS_TYPE": 0, "CLASSIFICATION_TYPE": "U", "NORAD_CAT_ID": 66513, "ELEMENT_SET_NO": 999, "REV_AT_EPOCH": 587, "BSTAR": -0.012484253, "MEAN_MOTION_DOT": -0.00658988, "MEAN_MOTION_DDOT": 0}, "tle": {"line1": "1 66513U 25263AE  25348.74210059 -.00658988  00000+0 -12484-1 0  9994", "line2": "2 66513  42.9999 113.3407 0006975 346.0385  14.0281 15.49888651  5871"}}, "geometry": {"type": "Point", "coordinates": [-55.374550591854025, -13.137660446464102]}}, {"type": "Feature", "properties": {"norad_id": 66514, "name": "SENTINEL-6B", "group": "last-30-days", "lat": -4.7252219904291595, "lon": 155.02214006656587, "alt_km": 1337.619298184084, "timestamp": "2025-12-15T07:02:36.372619+00:00", "meta": {"OBJECT_NAME": "SENTINEL-6B", "OBJECT_ID": "2025-264A", "EPOCH": "2025-12-12T06:01:21.430272", "MEAN_MOTION": 12.81479583, "ECCENTRICITY": 0.00078489, "INCLINATION": 66.0385, "RA_OF_ASC_NODE": 163.4531, "ARG_OF_PERICENTER": 270.1768, "MEAN_ANOMALY": 89.8348, "EPHEMERIS_TYPE": 0, "CLASSIFICATION_TYPE": "U", "NORAD_CAT_ID": 66514, "ELEMENT_SET_NO": 999, "REV_AT_EPOCH": 322, "BSTAR": 0.00019742237, "MEAN_MOTION_DOT": -1.5e-07, "MEAN_MOTION_DDOT": 0}, "tle": {"line1": "1 66514U 25264A   25346.25094248 -.00000015  00000+0  19742-3 0  9997", "line2": "2 66514  66.0385 163.4531 0007848 270.1768  89.8348 12.81479583  3228"}}, "geometry": {"type": "Point", "coordinates": [155.02214006656587, -4.7252219904291595]}}, {"type": "Feature", "properties": {"norad_id": 66516, "name": "STARLINK-35924", "group": "last-30-days", "lat": -35.780153612685545, "lon": -89.94148079364027, "alt_km": 446.125841336705, "timestamp": "2025-12-15T07:02:36.372629+00:00", "meta": {"OBJECT_NAME": "STARLINK-35924", "OBJECT_ID": "2025-265A", "EPOCH": "2025-12-14T20:00:06.000192", "MEAN_MOTION": 15.40672139, "ECCENTRICITY": 0.00017449, "INCLINATION": 43.001, "RA_OF_ASC_NODE": 42.0524, "ARG_OF_PERICENTER": 262.4247, "MEAN_ANOMALY": 301.7984, "EPHEMERIS_TYPE": 0, "CLASSIFICATION_TYPE": "U", "NORAD_CAT_ID": 66516, "ELEMENT_SET_NO": 999, "REV_AT_EPOCH": 531, "BSTAR": -0.00019515466, "MEAN_MOTION_DOT": -8.439e-05, "MEAN_MOTION_DDOT": 0}, "tle": {"line1": "1 66516U 25265A   25348.83340278 -.00008439  00000+0 -19515-3 0  9990", "line2": "2 66516  43.0010  42.0524 0001744 262.4247 301.7984 15.40672139  5313"}}, "geometry": {"type": "Point", "coordinates": [-89.94148079364027, -35.780153612685545]}}]}